{
  "type": "FeatureCollection",
  "features": [
    {
      "type": "Feature",
      "properties": {
        "norad_id": 66572,
        "name": "STARLINK-35870",
        "group": "last-30-days",
        "lat": -33.4048753988407,
        "lon": 104.1574620690668,
        "alt_km": 400.3724251113581,
        "timestamp": "2025-12-07T22:37:41.857519+00:00",
        "meta_object_name": "STARLINK-35870",
        "meta_object_id": "2025-268R",
        "meta_epoch": "2025-12-07T06:00:04.999968",
        "meta_mean_motion": 15.59233769,
        "meta_eccentricity": 0.00017443,
        "meta_inclination": 43.0003,
        "meta_ra_of_asc_node": 153.3043,
        "meta_arg_of_pericenter": 268.8877,
        "meta_mean_anomaly": 107.6589,
        "meta_ephemeris_type": 0,
        "meta_classification_type": "U",
        "meta_norad_cat_id": 66572,
        "meta_element_set_no": 999,
        "meta_rev_at_epoch": 378,
        "meta_bstar": -0.028626998,
        "meta_mean_motion_dot": -0.02023451,
        "meta_mean_motion_ddot": 0,
        "tle_line1": "1 66572U 25268R   25341.25005787 -.02023451  00000+0 -28627-1 0  9992",
        "tle_line2": "2 66572  43.0003 153.3043 0001744 268.8877 107.6589 15.59233769  3783"
      },
      "geometry": {
        "type": "Point",
        "coordinates": [
          104.1574620690668,
          -33.4048753988407
        ]
      }
    },
    {
      "type": "Feature",
      "properties": {
        "norad_id": 66573,
        "name": "STARLINK-35650",
        "group": "last-30-days",
        "lat": -32.467265143572064,
        "lon": 106.13942428748942,
        "alt_km": 400.2049620612288,
        "timestamp": "2025-12-07T22:37:41.857529+00:00",
        "meta_object_name": "STARLINK-35650",
        "meta_object_id": "2025-268S",
        "meta_epoch": "2025-12-07T06:00:04.999968",
        "meta_mean_motion": 15.59232048,
        "meta_eccentricity": 0.00018305,
        "meta_inclination": 43.0003,
        "meta_ra_of_asc_node": 153.2984,
        "meta_arg_of_pericenter": 273.4195,
        "meta_mean_anomaly": 105.0446,
        "meta_ephemeris_type": 0,
        "meta_classification_type": "U",
        "meta_norad_cat_id": 66573,
        "meta_element_set_no": 999,
        "meta_rev_at_epoch": 378,
        "meta_bstar": -0.028599197,
        "meta_mean_motion_dot": -0.02021685,
        "meta_mean_motion_ddot": 0,
        "tle_line1": "1 66573U 25268S   25341.25005787 -.02021685  00000+0 -28599-1 0  9998",
        "tle_line2": "2 66573  43.0003 153.2984 0001830 273.4195 105.0446 15.59232048  3781"
      },
      "geometry": {
        "type": "Point",
        "coordinates": [
          106.13942428748942,
          -32.467265143572064
        ]
      }
    },
    {
      "type": "Feature",
      "properties": {
        "norad_id": 66574,
        "name": "STARLINK-35812",
        "group": "last-30-days",
        "lat": -31.49698271053243,
        "lon": 108.08400443460494,
        "alt_km": 400.33945630909784,
        "timestamp": "2025-12-07T22:37:41.857539+00:00",
        "meta_object_name": "STARLINK-35812",
        "meta_object_id": "2025-268T",
        "meta_epoch": "2025-12-07T06:00:04.999968",
        "meta_mean_motion": 15.59233237,
        "meta_eccentricity": 0.00016609,
        "meta_inclination": 43,
        "meta_ra_of_asc_node": 153.2932,
        "meta_arg_of_pericenter": 270.5069,
        "meta_mean_anomaly": 109.8753,
        "meta_ephemeris_type": 0,
        "meta_classification_type": "U",
        "meta_norad_cat_id": 66574,
        "meta_element_set_no": 999,
        "meta_rev_at_epoch": 378,
        "meta_bstar": -0.02861844,
        "meta_mean_motion_dot": -0.02022823,
        "meta_mean_motion_ddot": 0,
        "tle_line1": "1 66574U 25268T   25341.25005787 -.02022823  00000+0 -28618-1 0  9996",
        "tle_line2": "2 66574  43.0000 153.2932 0001660 270.5069 109.8753 15.59233237  3785"
      },
      "geometry": {
        "type": "Point",
        "coordinates": [
          108.08400443460494,
          -31.49698271053243
        ]
      }
    },
    {
      "type": "Feature",
      "properties": {
        "norad_id": 66575,
        "name": "STARLINK-35810",
        "group": "last-30-days",
        "lat": -30.497933696850904,
        "lon": 109.98856572935425,
        "alt_km": 400.216154765445,
        "timestamp": "2025-12-07T22:37:41.857549+00:00",
        "meta_object_name": "STARLINK-35810",
        "meta_object_id": "2025-268U",
        "meta_epoch": "2025-12-07T06:00:04.999968",
        "meta_mean_motion": 15.59237027,
        "meta_eccentricity": 0.00017623,
        "meta_inclination": 42.9999,
        "meta_ra_of_asc_node": 153.2886,
        "meta_arg_of_pericenter": 271.6419,
        "meta_mean_anomaly": 110.6504,
        "meta_ephemeris_type": 0,
        "meta_classification_type": "U",
        "meta_norad_cat_id": 66575,
        "meta_element_set_no": 999,
        "meta_rev_at_epoch": 378,
        "meta_bstar": -0.028621197,
        "meta_mean_motion_dot": -0.02023329,
        "meta_mean_motion_ddot": 0,
        "tle_line1": "1 66575U 25268U   25341.25005787 -.02023329  00000+0 -28621-1 0  9993",
        "tle_line2": "2 66575  42.9999 153.2886 0001762 271.6419 110.6504 15.59237027  3788"
      },
      "geometry": {
        "type": "Point",
        "coordinates": [
          109.98856572935425,
          -30.497933696850904
        ]
      }
    },
    {
      "type": "Feature",
      "properties": {
        "norad_id": 66576,
        "name": "STARLINK-35814",
        "group": "last-30-days",
        "lat": -29.472017538557935,
        "lon": 111.85301099582756,
        "alt_km": 400.2240211959588,
        "timestamp": "2025-12-07T22:37:41.857559+00:00",
        "meta_object_name": "STARLINK-35814",
        "meta_object_id": "2025-268V",
        "meta_epoch": "2025-12-07T06:00:04.999968",
        "meta_mean_motion": 15.5923292,
        "meta_eccentricity": 0.00017885,
        "meta_inclination": 42.9999,
        "meta_ra_of_asc_node": 153.2837,
        "meta_arg_of_pericenter": 269.1519,
        "meta_mean_anomaly": 115.0614,
        "meta_ephemeris_type": 0,
        "meta_classification_type": "U",
        "meta_norad_cat_id": 66576,
        "meta_element_set_no": 999,
        "meta_rev_at_epoch": 378,
        "meta_bstar": -0.028578341,
        "meta_mean_motion_dot": -0.02020423,
        "meta_mean_motion_ddot": 0,
        "tle_line1": "1 66576U 25268V   25341.25005787 -.02020423  00000+0 -28578-1 0  9997",
        "tle_line2": "2 66576  42.9999 153.2837 0001788 269.1519 115.0614 15.59232920  3784"
      },
      "geometry": {
        "type": "Point",
        "coordinates": [
          111.85301099582756,
          -29.472017538557935
        ]
      }
    },
    {
      "type": "Feature",
      "properties": {
        "norad_id": 66577,
        "name": "STARLINK-35815",
        "group": "last-30-days",
        "lat": -28.421242592699947,
        "lon": 113.67872989645554,
        "alt_km": 400.189165691334,
        "timestamp": "2025-12-07T22:37:41.857570+00:00",
        "meta_object_name": "STARLINK-35815",
        "meta_object_id": "2025-268W",
        "meta_epoch": "2025-12-07T06:00:04.999968",
        "meta_mean_motion": 15.5923339,
        "meta_eccentricity": 0.00017988,
        "meta_inclination": 43,
        "meta_ra_of_asc_node": 153.2791,
        "meta_arg_of_pericenter": 269.0668,
        "meta_mean_anomaly": 117.0631,
        "meta_ephemeris_type": 0,
        "meta_classification_type": "U",
        "meta_norad_cat_id": 66577,
        "meta_element_set_no": 999,
        "meta_rev_at_epoch": 378,
        "meta_bstar": -0.028584778,
        "meta_mean_motion_dot": -0.02020861,
        "meta_mean_motion_ddot": 0,
        "tle_line1": "1 66577U 25268W   25341.25005787 -.02020861  00000+0 -28585-1 0  9992",
        "tle_line2": "2 66577  43.0000 153.2791 0001798 269.0668 117.0631 15.59233390  3787"
      },
      "geometry": {
        "type": "Point",
        "coordinates": [
          113.67872989645554,
          -28.421242592699947
        ]
      }
    },
    {
      "type": "Feature",
      "properties": {
        "norad_id": 66578,
        "name": "STARLINK-35743",
        "group": "last-30-days",
        "lat": -27.34606730918469,
        "lon": 115.46867231074336,
        "alt_km": 400.1270530574102,
        "timestamp": "2025-12-07T22:37:41.857587+00:00",
        "meta_object_name": "STARLINK-35743",
        "meta_object_id": "2025-268X",
        "meta_epoch": "2025-12-07T06:00:04.999968",
        "meta_mean_motion": 15.59232398,
        "meta_eccentricity": 0.00018157,
        "meta_inclination": 43.0002,
        "meta_ra_of_asc_node": 153.2743,
        "meta_arg_of_pericenter": 269.6415,
        "meta_mean_anomaly": 118.4057,
        "meta_ephemeris_type": 0,
        "meta_classification_type": "U",
        "meta_norad_cat_id": 66578,
        "meta_element_set_no": 999,
        "meta_rev_at_epoch": 378,
        "meta_bstar": -0.028563049,
        "meta_mean_motion_dot": -0.02019464,
        "meta_mean_motion_ddot": 0,
        "tle_line1": "1 66578U 25268X   25341.25005787 -.02019464  00000+0 -28563-1 0  9996",
        "tle_line2": "2 66578  43.0002 153.2743 0001815 269.6415 118.4057 15.59232398  3787"
      },
      "geometry": {
        "type": "Point",
        "coordinates": [
          115.46867231074336,
          -27.34606730918469
        ]
      }
    }
  ]
}